start=new Date('2022-05-05T00:00:00.000Z').valueOf();
sats=[{"PERIAPSIS":"546.147","SITE":"AFETR","RCS_SIZE":"LARGE","MEAN_MOTION_DDOT":"0.0000000000000","MEAN_MOTION_DOT":"0.00001295","MEAN_ANOMALY":"285.8940","LAUNCH_DATE":"2021-05-15","MEAN_MOTION":"15.06402634","FILE":"3429148","DECAY_DATE":null,"ARG_OF_PERICENTER":"74.2218","GP_ID":"202715728","PERIOD":"95.592","REF_FRAME":"TEME","COUNTRY_CODE":"US","RA_OF_ASC_NODE":"318.2687","ELEMENT_SET_NO":"999","APOAPSIS":"548.264","TLE_LINE2":"2 48577  53.0550 318.2687 0001529  74.2218 285.8940 15.06402634 53451","SEMIMAJOR_AXIS":"6925.340","OBJECT_NAME":"STARLINK-2231","BSTAR":"0.00010578000000","ECCENTRICITY":"0.00015290","CLASSIFICATION_TYPE":"U","INCLINATION":"53.0550","TLE_LINE1":"1 48577U 21041AA  22124.83083897  .00001295  00000-0  10578-3 0  9997","EPOCH":"2022-05-04T19:56:24.487008","CENTER_NAME":"EARTH","OBJECT_ID":"2021-041AA","NORAD_CAT_ID":"48577","EPHEMERIS_TYPE":"0","REV_AT_EPOCH":"5345","MEAN_ELEMENT_THEORY":"SGP4","TIME_SYSTEM":"UTC","OBJECT_TYPE":"PAYLOAD"},{"PERIAPSIS":"545.889","SITE":"AFETR","RCS_SIZE":"LARGE","MEAN_MOTION":"15.06294473","MEAN_MOTION_DDOT":"0.0000000000000","MEAN_ANOMALY":"281.6222","MEAN_MOTION_DOT":"0.00025095","LAUNCH_DATE":"2021-05-15","FILE":"3429005","ARG_OF_PERICENTER":"78.5034","GP_ID":"202690551","PERIOD":"95.599","REF_FRAME":"TEME","DECAY_DATE":null,"COUNTRY_CODE":"US","RA_OF_ASC_NODE":"318.3702","ELEMENT_SET_NO":"999","SEMIMAJOR_AXIS":"6925.672","BSTAR":"0.00170240000000","OBJECT_NAME":"STARLINK-2232","APOAPSIS":"549.185","TLE_LINE2":"2 48578  53.0560 318.3702 0002380  78.5034 281.6222 15.06294473 53908","CLASSIFICATION_TYPE":"U","ECCENTRICITY":"0.00023800","EPOCH":"2022-05-04T19:28:32.852640","TLE_LINE1":"1 48578U 21041AB  22124.81149135  .00025095  00000-0  17024-2 0  9990","CENTER_NAME":"EARTH","INCLINATION":"53.0560","NORAD_CAT_ID":"48578","OBJECT_ID":"2021-041AB","EPHEMERIS_TYPE":"0","OBJECT_TYPE":"PAYLOAD","REV_AT_EPOCH":"5390","MEAN_ELEMENT_THEORY":"SGP4","TIME_SYSTEM":"UTC"},{"EPHEMERIS_TYPE":"0","OBJECT_TYPE":"PAYLOAD","TIME_SYSTEM":"UTC","REV_AT_EPOCH":"5346","MEAN_ELEMENT_THEORY":"SGP4","CENTER_NAME":"EARTH","EPOCH":"2022-05-04T21:16:01.490304","TLE_LINE1":"1 48579U 21041AC  22124.88612836  .00001307  00000-0  10658-3 0  9998","INCLINATION":"53.0547","NORAD_CAT_ID":"48579","OBJECT_ID":"2021-041AC","OBJECT_NAME":"STARLINK-2233","BSTAR":"0.00010658000000","SEMIMAJOR_AXIS":"6925.317","TLE_LINE2":"2 48579  53.0547 318.0345 0001421  67.2159 292.8980 15.06410309 53466","APOAPSIS":"548.166","CLASSIFICATION_TYPE":"U","ECCENTRICITY":"0.00014210","RA_OF_ASC_NODE":"318.0345","ELEMENT_SET_NO":"999","COUNTRY_CODE":"US","FILE":"3429148","REF_FRAME":"TEME","PERIOD":"95.591","GP_ID":"202716223","ARG_OF_PERICENTER":"67.2159","DECAY_DATE":null,"MEAN_MOTION":"15.06410309","LAUNCH_DATE":"2021-05-15","MEAN_MOTION_DDOT":"0.0000000000000","MEAN_MOTION_DOT":"0.00001307","MEAN_ANOMALY":"292.8980","PERIAPSIS":"546.198","RCS_SIZE":"LARGE","SITE":"AFETR"},{"INCLINATION":"53.0534","TLE_LINE1":"1 48580U 21041AD  22124.91668981  .00011745  00000-0  80613-3 0  9991","EPOCH":"2022-05-04T22:00:01.999584","CENTER_NAME":"EARTH","OBJECT_ID":"2021-041AD","NORAD_CAT_ID":"48580","EPHEMERIS_TYPE":"0","REV_AT_EPOCH":"360","MEAN_ELEMENT_THEORY":"SGP4","TIME_SYSTEM":"UTC","OBJECT_TYPE":"PAYLOAD","RA_OF_ASC_NODE":"292.9062","ELEMENT_SET_NO":"999","APOAPSIS":"548.128","TLE_LINE2":"2 48580  53.0534 292.9062 0001301  76.8809 271.6896 15.06395649  3606","SEMIMAJOR_AXIS":"6925.362","BSTAR":"0.00080613000000","OBJECT_NAME":"STARLINK-2234","ECCENTRICITY":"0.00013010","CLASSIFICATION_TYPE":"U","FILE":"3429148","DECAY_DATE":null,"GP_ID":"202715478","ARG_OF_PERICENTER":"76.8809","REF_FRAME":"TEME","PERIOD":"95.592","COUNTRY_CODE":"US","PERIAPSIS":"546.326","SITE":"AFETR","RCS_SIZE":"LARGE","MEAN_MOTION_DDOT":"0.0000000000000","MEAN_ANOMALY":"271.6896","MEAN_MOTION_DOT":"0.00011745","LAUNCH_DATE":"2021-05-15","MEAN_MOTION":"15.06395649"},{"APOAPSIS":"548.213","TLE_LINE2":"2 48581  53.0528 282.8968 0001397  62.7464 140.8467 15.06389523  3604","SEMIMAJOR_AXIS":"6925.381","OBJECT_NAME":"STARLINK-2235","BSTAR":"0.00122730000000","ECCENTRICITY":"0.00013970","CLASSIFICATION_TYPE":"U","RA_OF_ASC_NODE":"282.8968","ELEMENT_SET_NO":"999","EPHEMERIS_TYPE":"0","MEAN_ELEMENT_THEORY":"SGP4","REV_AT_EPOCH":"360","TIME_SYSTEM":"UTC","OBJECT_TYPE":"PAYLOAD","INCLINATION":"53.0528","EPOCH":"2022-05-04T22:00:01.999584","TLE_LINE1":"1 48581U 21041AE  22124.91668981  .00018041  00000-0  12273-2 0  9994","CENTER_NAME":"EARTH","OBJECT_ID":"2021-041AE","NORAD_CAT_ID":"48581","MEAN_ANOMALY":"140.8467","MEAN_MOTION_DDOT":"0.0000000000000","MEAN_MOTION_DOT":"0.00018041","LAUNCH_DATE":"2021-05-15","MEAN_MOTION":"15.06389523","PERIAPSIS":"546.278","SITE":"AFETR","RCS_SIZE":"LARGE","COUNTRY_CODE":"US","FILE":"3429148","DECAY_DATE":null,"ARG_OF_PERICENTER":"62.7464","GP_ID":"202716229","PERIOD":"95.593","REF_FRAME":"TEME"},{"CENTER_NAME":"EARTH","TLE_LINE1":"1 48582U 21041AF  22124.91668981  .00025152  00000-0  17019-2 0  9999","EPOCH":"2022-05-04T22:00:01.999584","INCLINATION":"53.0540","NORAD_CAT_ID":"48582","OBJECT_ID":"2021-041AF","EPHEMERIS_TYPE":"0","OBJECT_TYPE":"PAYLOAD","TIME_SYSTEM":"UTC","REV_AT_EPOCH":"360","MEAN_ELEMENT_THEORY":"SGP4","RA_OF_ASC_NODE":"282.8812","ELEMENT_SET_NO":"999","OBJECT_NAME":"STARLINK-2236","BSTAR":"0.00170190000000","SEMIMAJOR_AXIS":"6925.382","TLE_LINE2":"2 48582  53.0540 282.8812 0001536  59.7017 323.8886 15.06388979  3604","APOAPSIS":"548.311","CLASSIFICATION_TYPE":"U","ECCENTRICITY":"0.00015360","FILE":"3429148","PERIOD":"95.593","REF_FRAME":"TEME","GP_ID":"202715976","ARG_OF_PERICENTER":"59.7017","DECAY_DATE":null,"COUNTRY_CODE":"US","PERIAPSIS":"546.184","RCS_SIZE":"LARGE","SITE":"AFETR","MEAN_MOTION":"15.06388979","LAUNCH_DATE":"2021-05-15","MEAN_MOTION_DDOT":"0.0000000000000","MEAN_ANOMALY":"323.8886","MEAN_MOTION_DOT":"0.00025152"},{"EPHEMERIS_TYPE":"0","TIME_SYSTEM":"UTC","MEAN_ELEMENT_THEORY":"SGP4","REV_AT_EPOCH":"5332","OBJECT_TYPE":"PAYLOAD","INCLINATION":"53.0542","CENTER_NAME":"EARTH","EPOCH":"2022-05-04T20:48:09.866304","TLE_LINE1":"1 48583U 21041AG  22124.86678086  .00005707  00000-0  40159-3 0  9997","OBJECT_ID":"2021-041AG","NORAD_CAT_ID":"48583","TLE_LINE2":"2 48583  53.0542 328.1183 0001395  71.8554 288.2587 15.06410016 53320","APOAPSIS":"548.149","OBJECT_NAME":"STARLINK-2237","BSTAR":"0.00040159000000","SEMIMAJOR_AXIS":"6925.318","ECCENTRICITY":"0.00013950","CLASSIFICATION_TYPE":"U","RA_OF_ASC_NODE":"328.1183","ELEMENT_SET_NO":"999","COUNTRY_CODE":"US","FILE":"3429148","DECAY_DATE":null,"REF_FRAME":"TEME","PERIOD":"95.592","GP_ID":"202716723","ARG_OF_PERICENTER":"71.8554","LAUNCH_DATE":"2021-05-15","MEAN_ANOMALY":"288.2587","MEAN_MOTION_DDOT":"0.0000000000000","MEAN_MOTION_DOT":"0.00005707","MEAN_MOTION":"15.06410016","PERIAPSIS":"546.217","RCS_SIZE":"LARGE","SITE":"AFETR"},{"COUNTRY_CODE":"US","FILE":"3429148","DECAY_DATE":null,"REF_FRAME":"TEME","PERIOD":"95.592","ARG_OF_PERICENTER":"53.8633","GP_ID":"202714978","LAUNCH_DATE":"2021-05-15","MEAN_MOTION_DOT":"0.00001430","MEAN_MOTION_DDOT":"0.0000000000000","MEAN_ANOMALY":"306.2494","MEAN_MOTION":"15.06397327","PERIAPSIS":"546.187","RCS_SIZE":"LARGE","SITE":"AFETR","EPHEMERIS_TYPE":"0","TIME_SYSTEM":"UTC","REV_AT_EPOCH":"5329","MEAN_ELEMENT_THEORY":"SGP4","OBJECT_TYPE":"PAYLOAD","INCLINATION":"53.0551","CENTER_NAME":"EARTH","EPOCH":"2022-05-04T16:59:55.476672","TLE_LINE1":"1 48584U 21041AH  22124.70828098  .00001430  00000-0  11488-3 0  9993","OBJECT_ID":"2021-041AH","NORAD_CAT_ID":"48584","TLE_LINE2":"2 48584  53.0551 328.8309 0001494  53.8633 306.2494 15.06397327 53299","APOAPSIS":"548.256","BSTAR":"0.00011488000000","OBJECT_NAME":"STARLINK-2238","SEMIMAJOR_AXIS":"6925.357","ECCENTRICITY":"0.00014940","CLASSIFICATION_TYPE":"U","RA_OF_ASC_NODE":"328.8309","ELEMENT_SET_NO":"999"},{"CLASSIFICATION_TYPE":"U","ECCENTRICITY":"0.00013020","SEMIMAJOR_AXIS":"6925.331","OBJECT_NAME":"STARLINK-2240","BSTAR":"0.00043635000000","APOAPSIS":"548.098","TLE_LINE2":"2 48585  53.0543 332.0672 0001302  96.3517 263.7620 15.06405716 53180","ELEMENT_SET_NO":"999","RA_OF_ASC_NODE":"332.0672","OBJECT_TYPE":"PAYLOAD","REV_AT_EPOCH":"5318","MEAN_ELEMENT_THEORY":"SGP4","TIME_SYSTEM":"UTC","EPHEMERIS_TYPE":"0","NORAD_CAT_ID":"48585","OBJECT_ID":"2021-041AJ","TLE_LINE1":"1 48585U 21041AJ  22123.98953903  .00006225  00000-0  43635-3 0  9993","EPOCH":"2022-05-03T23:44:56.172192","CENTER_NAME":"EARTH","INCLINATION":"53.0543","MEAN_MOTION":"15.06405716","MEAN_ANOMALY":"263.7620","MEAN_MOTION_DDOT":"0.0000000000000","MEAN_MOTION_DOT":"0.00006225","LAUNCH_DATE":"2021-05-15","SITE":"AFETR","RCS_SIZE":"LARGE","PERIAPSIS":"546.294","COUNTRY_CODE":"US","ARG_OF_PERICENTER":"96.3517","GP_ID":"202682327","REF_FRAME":"TEME","PERIOD":"95.592","DECAY_DATE":null,"FILE":"3428698"},{"RA_OF_ASC_NODE":"328.2224","ELEMENT_SET_NO":"999","SEMIMAJOR_AXIS":"6925.333","BSTAR":"0.00010159000000","OBJECT_NAME":"STARLINK-2241","APOAPSIS":"548.173","TLE_LINE2":"2 48586  53.0552 328.2224 0001408  65.8805 294.2331 15.06405083 53319","CLASSIFICATION_TYPE":"U","ECCENTRICITY":"0.00014080","EPOCH":"2022-05-04T20:16:18.808896","TLE_LINE1":"1 48586U 21041AK  22124.84466214  .00001232  00000-0  10159-3 0  9992","CENTER_NAME":"EARTH","INCLINATION":"53.0552","NORAD_CAT_ID":"48586","OBJECT_ID":"2021-041AK","EPHEMERIS_TYPE":"0","OBJECT_TYPE":"PAYLOAD","REV_AT_EPOCH":"5331","MEAN_ELEMENT_THEORY":"SGP4","TIME_SYSTEM":"UTC","PERIAPSIS":"546.223","SITE":"AFETR","RCS_SIZE":"LARGE","MEAN_MOTION":"15.06405083","MEAN_MOTION_DDOT":"0.0000000000000","MEAN_MOTION_DOT":"0.00001232","MEAN_ANOMALY":"294.2331","LAUNCH_DATE":"2021-05-15","FILE":"3429148","GP_ID":"202716476","ARG_OF_PERICENTER":"65.8805","REF_FRAME":"TEME","PERIOD":"95.592","DECAY_DATE":null,"COUNTRY_CODE":"US"}];
